[{"OBJECT_NAME":"STARLINK-4274","OBJECT_ID":"2022-062AM","EPOCH":"2026-03-09T06:11:23.189856","MEAN_MOTION":15.08844734,"ECCENTRICITY":0.00013062,"INCLINATION":53.2194,"RA_OF_ASC_NODE":26.0591,"ARG_OF_PERICENTER":83.9235,"MEAN_ANOMALY":276.1906,"EPHEMERIS_TYPE":0,"CLASSIFICATION_TYPE":"U","NORAD_CAT_ID":52865,"ELEMENT_SET_NO":999,"REV_AT_EPOCH":20586,"BSTAR":-9.0558774e-5,"MEAN_MOTION_DOT":-1.729e-5,"MEAN_MOTION_DDOT":0},{"OBJECT_NAME":"SEDNA-2","OBJECT_ID":"2025-009DQ","EPOCH":"2026-03-09T19:10:28.282944","MEAN_MOTION":15.10492622,"ECCENTRICITY":0.0010309,"INCLINATION":97.4615,"RA_OF_ASC_NODE":144.8075,"ARG_OF_PERICENTER":53.026,"MEAN_ANOMALY":307.1912,"EPHEMERIS_TYPE":0,"CLASSIFICATION_TYPE":"U","NORAD_CAT_ID":63153,"ELEMENT_SET_NO":999,"REV_AT_EPOCH":6311,"BSTAR":0.00049393403,"MEAN_MOTION_DOT":8.085e-5,"MEAN_MOTION_DDOT":0}]
